PERSEUS-M1              
1 40039U 14033AF  26188.84242198  .00001191  00000+0  11243-3 0  9995
2 40039  97.9645 133.3147 0010495 223.5513 136.4879 14.95696203653726
POLYITAN-1              
1 40042U 14033AJ  26188.93121191  .00011348  00000+0  34689-3 0  9992
2 40042  98.0942 217.1650 0008406  84.8974 275.3226 15.34031517656772
TIGRISAT                
1 40043U 14033AK  26189.20333150  .00001283  00000+0  15273-3 0  9999
2 40043  97.7856 338.7368 0049257   7.3778 352.8151 14.85235368648741
AEROCUBE 6A             
1 40045U 14033AM  26189.06183295  .00002813  00000+0  23824-3 0  9999
2 40045  97.7238 355.7920 0037117 305.4652  54.3108 14.98296383649740
AEROCUBE 6B             
1 40046U 14033AN  26188.71023843  .00002971  00000+0  24186-3 0  9990
2 40046  97.7215 355.2788 0037848 296.6954  63.0396 14.99755397649832
CANX-4                  
1 40055U 14034C   26189.09229759  .00000651  00000+0  90799-4 0  9994
2 40055  98.3096  65.1704 0011684 308.1402  51.8755 14.81302577647626
CANX-5                  
1 40056U 14034D   26189.09048679  .00000653  00000+0  90910-4 0  9992
2 40056  98.3098  65.2133 0011678 308.3694  51.6468 14.81319930638433
UKUBE-1                 
1 40074U 14037F   26188.72655405  .00004659  00000+0  26186-3 0  9998
2 40074  98.4246 194.1610 0003327 100.8732 259.2871 15.13875148651669
BRITE-PL2 (HEWELIUSZ)   
1 40119U 14049B   26188.85911128  .00001718  00000+0  16367-3 0  9995
2 40119  97.9110 301.0209 0014882  46.1590 314.0857 14.94670588644539
AEROCUBE 5C             
1 40965U 15058B   26189.02367020  .00001762  00000+0  16373-3 0  9997
2 40965  64.7654 197.7638 0131855  55.1724 306.1707 14.91546424368760
AEROCUBE 7              
1 40966U 15058C   26187.68997802  .00003817  00000+0  30749-3 0  9991
2 40966  64.7609 183.7222 0121451  54.0290 307.2015 14.95859784368878
FOX-1A (AO-85)          
1 40967U 15058D   26189.07802057  .00001529  00000+0  14596-3 0  9994
2 40967  64.7733 214.0565 0131815  48.5092 312.7244 14.91061024116681
SINOD-D 1               
1 40968U 15058E   26189.00254910  .00002683  00000+0  21994-3 0  9999
2 40968  64.7735 193.7198 0120470  44.9214 316.1571 14.96042714119774
SNAP-3 ALICE            
1 40970U 15058G   26188.90809883  .00098085  00000+0  94382-3 0  9997
2 40970  64.7497  32.0221 0023619 354.1383   5.9485 15.65672222120122
LMRST-SAT               
1 40971U 15058H   26189.03868598  .00001488  00000+0  14332-3 0  9999
2 40971  64.7739 210.5563 0133369  50.5319 310.7501 14.90676691116665
SNAP-3 EDDIE            
1 40972U 15058J   26189.00944814  .00095299  00000+0  86947-3 0  9997
2 40972  64.7407  22.2369 0024492 356.9344   3.1650 15.66974272122280
PROPCUBE 3              
1 40973U 15058K   26189.02291485  .00002298  00000+0  19686-3 0  9992
2 40973  64.7669 187.4306 0125234  51.7463 309.4841 14.94377515117919
BISONSAT                
1 40974U 15058L   26188.87250538  .00009399  00000+0  44684-3 0  9994
2 40974  64.7578 106.7372 0081376  38.9546 321.7402 15.16787657118753
SNAP-3 JIMI             
1 40975U 15058M   26188.29166876  .00005666  00000+0  38731-3 0  9991
2 40975  64.7638 156.1518 0107253  47.3702 313.6396 15.02533240117240
PROPCUBE 1 (FLORA)      
1 40976U 15058N   26189.07990627  .00001205  00000+0  12371-3 0  9995
2 40976  64.7731 230.4798 0131976  52.8090 308.4983 14.89306718119373
SINOD-D 3               
1 40977U 15058P   26189.05791859  .00001986  00000+0  17514-3 0  9990
2 40977  64.7707 210.6399 0120540  49.8974 311.2629 14.94137485117877
RAVAN                   
1 41849U 16067B   26189.14090624  .00040037  00000+0  55667-3 0  9993
2 41849  97.9852  81.1647 0001565 269.3757  90.7317 15.56890885530955
CELTEE 1                
1 41850U 16067C   26189.07846458  .00002723  00000+0  13049-3 0  9999
2 41850  98.0650  57.0703 0002106 118.9363 241.2081 15.19893580529058
OPTICUBE 04             
1 41851U 16067D   26188.82465138  .00001369  00000+0  89049-4 0  9993
2 41851  98.0684  42.1840 0016663  51.4259 308.8458 15.09749997528284
AEROCUBE 8D             
1 41852U 16067E   26189.09311530  .00003959  00000+0  16339-3 0  9998
2 41852  98.0657  60.8554 0004901  74.3063 285.8713 15.24701518529253
AEROCUBE 8C             
1 41853U 16067F   26188.06477431  .00005788  00000+0  23555-3 0  9998
2 41853  98.0530  56.9510 0005109  10.9574 349.1772 15.24945674529090
CORVUS BC2              
1 42846U 17042X   26188.38872309  .00002737  00000+0  18929-3 0  9993
2 42846  97.4091 348.9564 0013946  47.7457 312.4951 15.06428633490109
CORVUS BC1              
1 42847U 17042Y   26188.91243132  .00001882  00000+0  13090-3 0  9993
2 42847  97.4125 350.2875 0012372  25.3395 334.8437 15.06596608490211
MAKERSAT 0              
1 43016U 17073D   26187.63911723  .00016571  00000+0  44083-3 0  9999
2 43016  97.4596  70.3150 0104976 202.8118 156.8443 15.32782580469440
SIRION PATHFINDER-2     
1 43759U 18099B   26188.92597441  .00002669  00000+0  14747-3 0  9999
2 43759  97.4246 237.4912 0007741 218.2423 141.8261 15.14739117415766
